[{"OBJECT_NAME":"KOREASAT 7","OBJECT_ID":"2017-023A","EPOCH":"2026-04-27T00:23:09.998016","MEAN_MOTION":1.00271453,"ECCENTRICITY":9.85e-5,"INCLINATION":0.0254,"RA_OF_ASC_NODE":335.4507,"ARG_OF_PERICENTER":67.2733,"MEAN_ANOMALY":293.9761,"EPHEMERIS_TYPE":0,"CLASSIFICATION_TYPE":"U","NORAD_CAT_ID":42691,"ELEMENT_SET_NO":999,"REV_AT_EPOCH":3285,"BSTAR":0,"MEAN_MOTION_DOT":-3.73e-6,"MEAN_MOTION_DDOT":0},{"OBJECT_NAME":"SGDC","OBJECT_ID":"2017-023B","EPOCH":"2026-04-26T14:41:04.808544","MEAN_MOTION":1.00271005,"ECCENTRICITY":0.00028323,"INCLINATION":0.0151,"RA_OF_ASC_NODE":97.1049,"ARG_OF_PERICENTER":309.8345,"MEAN_ANOMALY":313.0843,"EPHEMERIS_TYPE":0,"CLASSIFICATION_TYPE":"U","NORAD_CAT_ID":42692,"ELEMENT_SET_NO":999,"REV_AT_EPOCH":3288,"BSTAR":0,"MEAN_MOTION_DOT":0,"MEAN_MOTION_DDOT":0},{"OBJECT_NAME":"GSAT-9","OBJECT_ID":"2017-024A","EPOCH":"2026-04-27T04:10:21.821088","MEAN_MOTION":1.00274854,"ECCENTRICITY":0.0002341,"INCLINATION":0.0489,"RA_OF_ASC_NODE":61.4415,"ARG_OF_PERICENTER":336.6161,"MEAN_ANOMALY":337.0116,"EPHEMERIS_TYPE":0,"CLASSIFICATION_TYPE":"U","NORAD_CAT_ID":42695,"ELEMENT_SET_NO":999,"REV_AT_EPOCH":3278,"BSTAR":0,"MEAN_MOTION_DOT":-2.97e-6,"MEAN_MOTION_DDOT":0},{"OBJECT_NAME":"INMARSAT 5-F4","OBJECT_ID":"2017-025A","EPOCH":"2026-04-26T19:04:14.423232","MEAN_MOTION":1.00271426,"ECCENTRICITY":4.08e-6,"INCLINATION":0.0149,"RA_OF_ASC_NODE":239.8152,"ARG_OF_PERICENTER":169.6636,"MEAN_ANOMALY":147.897,"EPHEMERIS_TYPE":0,"CLASSIFICATION_TYPE":"U","NORAD_CAT_ID":42698,"ELEMENT_SET_NO":999,"REV_AT_EPOCH":3276,"BSTAR":0,"MEAN_MOTION_DOT":0,"MEAN_MOTION_DDOT":0},{"OBJECT_NAME":"SES-15","OBJECT_ID":"2017-026A","EPOCH":"2026-04-27T04:48:34.998048","MEAN_MOTION":1.00270067,"ECCENTRICITY":6.52e-5,"INCLINATION":0.0244,"RA_OF_ASC_NODE":328.3659,"ARG_OF_PERICENTER":44.0223,"MEAN_ANOMALY":145.7921,"EPHEMERIS_TYPE":0,"CLASSIFICATION_TYPE":"U","NORAD_CAT_ID":42709,"ELEMENT_SET_NO":999,"REV_AT_EPOCH":692,"BSTAR":0,"MEAN_MOTION_DOT":5.0e-7,"MEAN_MOTION_DDOT":0},{"OBJECT_NAME":"VIASAT-2","OBJECT_ID":"2017-029A","EPOCH":"2026-04-27T04:35:38.533344","MEAN_MOTION":1.0027161,"ECCENTRICITY":2.78e-5,"INCLINATION":0.0175,"RA_OF_ASC_NODE":268.4377,"ARG_OF_PERICENTER":105.8831,"MEAN_ANOMALY":199.877,"EPHEMERIS_TYPE":0,"CLASSIFICATION_TYPE":"U","NORAD_CAT_ID":42740,"ELEMENT_SET_NO":999,"REV_AT_EPOCH":3269,"BSTAR":0,"MEAN_MOTION_DOT":-2.75e-6,"MEAN_MOTION_DDOT":0},{"OBJECT_NAME":"EUTELSAT 172B","OBJECT_ID":"2017-029B","EPOCH":"2026-04-27T02:34:38.741376","MEAN_MOTION":1.00271615,"ECCENTRICITY":1.36e-5,"INCLINATION":0.0176,"RA_OF_ASC_NODE":176.1238,"ARG_OF_PERICENTER":105.6578,"MEAN_ANOMALY":143.9648,"EPHEMERIS_TYPE":0,"CLASSIFICATION_TYPE":"U","NORAD_CAT_ID":42741,"ELEMENT_SET_NO":999,"REV_AT_EPOCH":3322,"BSTAR":0,"MEAN_MOTION_DOT":-1.6e-7,"MEAN_MOTION_DDOT":0},{"OBJECT_NAME":"GSAT-19","OBJECT_ID":"2017-031A","EPOCH":"2026-04-27T04:48:38.757312","MEAN_MOTION":1.00271587,"ECCENTRICITY":0.000697,"INCLINATION":0.0034,"RA_OF_ASC_NODE":184.3071,"ARG_OF_PERICENTER":225.3975,"MEAN_ANOMALY":285.5354,"EPHEMERIS_TYPE":0,"CLASSIFICATION_TYPE":"U","NORAD_CAT_ID":42747,"ELEMENT_SET_NO":999,"REV_AT_EPOCH":3263,"BSTAR":0,"MEAN_MOTION_DOT":1.15e-6,"MEAN_MOTION_DDOT":0},{"OBJECT_NAME":"ECHOSTAR 21","OBJECT_ID":"2017-032A","EPOCH":"2026-04-27T05:12:38.610720","MEAN_MOTION":1.00271576,"ECCENTRICITY":0.000242,"INCLINATION":1.7793,"RA_OF_ASC_NODE":352.401,"ARG_OF_PERICENTER":36.7362,"MEAN_ANOMALY":274.4722,"EPHEMERIS_TYPE":0,"CLASSIFICATION_TYPE":"U","NORAD_CAT_ID":42749,"ELEMENT_SET_NO":999,"REV_AT_EPOCH":3258,"BSTAR":0,"MEAN_MOTION_DOT":5.2e-7,"MEAN_MOTION_DDOT":0},{"OBJECT_NAME":"BULGARIASAT-1","OBJECT_ID":"2017-038A","EPOCH":"2026-04-27T05:20:38.796000","MEAN_MOTION":1.0027053,"ECCENTRICITY":0.000357,"INCLINATION":0.0178,"RA_OF_ASC_NODE":118.2501,"ARG_OF_PERICENTER":294.6273,"MEAN_ANOMALY":244.3972,"EPHEMERIS_TYPE":0,"CLASSIFICATION_TYPE":"U","NORAD_CAT_ID":42801,"ELEMENT_SET_NO":999,"REV_AT_EPOCH":3233,"BSTAR":0,"MEAN_MOTION_DOT":0,"MEAN_MOTION_DDOT":0},{"OBJECT_NAME":"HELLAS-SAT 3","OBJECT_ID":"2017-040A","EPOCH":"2026-04-27T04:56:38.684256","MEAN_MOTION":1.00274479,"ECCENTRICITY":0.0005324,"INCLINATION":0.0804,"RA_OF_ASC_NODE":53.9418,"ARG_OF_PERICENTER":335.0941,"MEAN_ANOMALY":299.3253,"EPHEMERIS_TYPE":0,"CLASSIFICATION_TYPE":"U","NORAD_CAT_ID":42814,"ELEMENT_SET_NO":999,"REV_AT_EPOCH":3229,"BSTAR":0,"MEAN_MOTION_DOT":1.42e-6,"MEAN_MOTION_DDOT":0},{"OBJECT_NAME":"GSAT-17","OBJECT_ID":"2017-040B","EPOCH":"2026-04-27T00:16:48.109152","MEAN_MOTION":1.00274079,"ECCENTRICITY":0.0004269,"INCLINATION":0.0194,"RA_OF_ASC_NODE":249.9575,"ARG_OF_PERICENTER":67.1974,"MEAN_ANOMALY":355.5678,"EPHEMERIS_TYPE":0,"CLASSIFICATION_TYPE":"U","NORAD_CAT_ID":42815,"ELEMENT_SET_NO":999,"REV_AT_EPOCH":3227,"BSTAR":0,"MEAN_MOTION_DOT":-2.69e-6,"MEAN_MOTION_DDOT":0},{"OBJECT_NAME":"INTELSAT 35E (IS-35E)","OBJECT_ID":"2017-041A","EPOCH":"2026-04-27T01:22:56.764416","MEAN_MOTION":1.00271365,"ECCENTRICITY":0.000214,"INCLINATION":0.0118,"RA_OF_ASC_NODE":223.7397,"ARG_OF_PERICENTER":169.6512,"MEAN_ANOMALY":167.9153,"EPHEMERIS_TYPE":0,"CLASSIFICATION_TYPE":"U","NORAD_CAT_ID":42818,"ELEMENT_SET_NO":999,"REV_AT_EPOCH":3230,"BSTAR":0,"MEAN_MOTION_DOT":0,"MEAN_MOTION_DDOT":0},{"OBJECT_NAME":"COSMOS 2520","OBJECT_ID":"2017-046A","EPOCH":"2026-04-27T01:45:39.586176","MEAN_MOTION":1.00273509,"ECCENTRICITY":6.97e-5,"INCLINATION":0.0228,"RA_OF_ASC_NODE":116.5433,"ARG_OF_PERICENTER":349.0294,"MEAN_ANOMALY":180.9295,"EPHEMERIS_TYPE":0,"CLASSIFICATION_TYPE":"U","NORAD_CAT_ID":42907,"ELEMENT_SET_NO":999,"REV_AT_EPOCH":3188,"BSTAR":0,"MEAN_MOTION_DOT":1.26e-6,"MEAN_MOTION_DDOT":0},{"OBJECT_NAME":"TDRS 13","OBJECT_ID":"2017-047A","EPOCH":"2026-04-26T19:47:38.565888","MEAN_MOTION":1.00271933,"ECCENTRICITY":0.00129267,"INCLINATION":3.4407,"RA_OF_ASC_NODE":1.4594,"ARG_OF_PERICENTER":98.4221,"MEAN_ANOMALY":40.3722,"EPHEMERIS_TYPE":0,"CLASSIFICATION_TYPE":"U","NORAD_CAT_ID":42915,"ELEMENT_SET_NO":999,"REV_AT_EPOCH":3183,"BSTAR":0,"MEAN_MOTION_DOT":-1.1e-6,"MEAN_MOTION_DDOT":0},{"OBJECT_NAME":"QZS-3 (MICHIBIKI-3)","OBJECT_ID":"2017-048A","EPOCH":"2026-04-27T00:26:17.200032","MEAN_MOTION":1.00270888,"ECCENTRICITY":0.0001357,"INCLINATION":0.0512,"RA_OF_ASC_NODE":181.1529,"ARG_OF_PERICENTER":203.3015,"MEAN_ANOMALY":324.1634,"EPHEMERIS_TYPE":0,"CLASSIFICATION_TYPE":"U","NORAD_CAT_ID":42917,"ELEMENT_SET_NO":999,"REV_AT_EPOCH":3174,"BSTAR":0,"MEAN_MOTION_DOT":-3.59e-6,"MEAN_MOTION_DDOT":0}]
