KOREASAT 7              
1 42691U 17023A   26117.01608794 -.00000373  00000+0  00000+0 0  9999
2 42691   0.0254 335.4507 0000985  67.2733 293.9761  1.00271453 32850
SGDC                    
1 42692U 17023B   26116.61186121  .00000000  00000+0  00000+0 0  9996
2 42692   0.0151  97.1049 0002832 309.8345 313.0843  1.00271005 32888
GSAT-9                  
1 42695U 17024A   26117.17386367 -.00000297  00000+0  00000+0 0  9995
2 42695   0.0489  61.4415 0002341 336.6161 337.0116  1.00274854 32788
INMARSAT 5-F4           
1 42698U 17025A   26116.79461138  .00000000  00000+0  00000+0 0  9997
2 42698   0.0149 239.8152 0000040 169.6636 147.8970  1.00271426 32763
SES-15                  
1 42709U 17026A   26117.20040507  .00000050  00000+0  00000+0 0  9996
2 42709   0.0244 328.3659 0000652  44.0223 145.7921  1.00270067  6927
VIASAT-2                
1 42740U 17029A   26117.19141821 -.00000275  00000+0  00000+0 0  9993
2 42740   0.0175 268.4377 0000278 105.8831 199.8770  1.00271610 32691
EUTELSAT 172B           
1 42741U 17029B   26117.10739284 -.00000016  00000+0  00000+0 0  9994
2 42741   0.0176 176.1238 0000136 105.6578 143.9648  1.00271615 33222
GSAT-19                 
1 42747U 17031A   26117.20044858  .00000115  00000+0  00000+0 0  9999
2 42747   0.0034 184.3071 0006970 225.3975 285.5354  1.00271587 32639
ECHOSTAR 21             
1 42749U 17032A   26117.21711355  .00000052  00000+0  00000+0 0  9996
2 42749   1.7793 352.4010 0002420  36.7362 274.4722  1.00271576 32580
BULGARIASAT-1           
1 42801U 17038A   26117.22267125  .00000000  00000+0  00000+0 0  9996
2 42801   0.0178 118.2501 0003570 294.6273 244.3972  1.00270530 32339
HELLAS-SAT 3            
1 42814U 17040A   26117.20600329  .00000142  00000+0  00000+0 0  9995
2 42814   0.0804  53.9418 0005324 335.0941 299.3253  1.00274479 32295
GSAT-17                 
1 42815U 17040B   26117.01166793 -.00000269  00000+0  00000+0 0  9998
2 42815   0.0194 249.9575 0004269  67.1974 355.5678  1.00274079 32275
INTELSAT 35E (IS-35E)   
1 42818U 17041A   26117.05760144  .00000000  00000+0  00000+0 0  9998
2 42818   0.0118 223.7397 0002140 169.6512 167.9153  1.00271365 32300
COSMOS 2520             
1 42907U 17046A   26117.07337484  .00000126  00000+0  00000+0 0  9990
2 42907   0.0228 116.5433 0000697 349.0294 180.9295  1.00273509 31883
TDRS 13                 
1 42915U 17047A   26116.82475192 -.00000110  00000+0  00000+0 0  9995
2 42915   3.4407   1.4594 0012926  98.4221  40.3722  1.00271933 31839
QZS-3 (MICHIBIKI-3)     
1 42917U 17048A   26117.01825463 -.00000359  00000+0  00000+0 0  9995
2 42917   0.0512 181.1529 0001357 203.3015 324.1634  1.00270888 31742
